GPS BIIR-2  (PRN 13)    
1 24876C 97035A   20271.71090278 -.00000000  00000-0  00000-0 0  2711
2 24876  55.4569 180.1638 0043696  58.4727 347.3136  2.00561856    12
GPS BIIR-3  (PRN 11)    
1 25933C 99055A   20271.71090278 -.00000000  00000-0  00000-0 0  2710
2 25933  52.3450  25.6066 0156820 117.6438 227.9221  2.00557793    14
GPS BIIR-4  (PRN 20)    
1 26360C 00025A   20271.71090278 -.00000000  00000-0  00000-0 0  2714
2 26360  53.5923 104.9135 0055863 157.7407 227.7299  2.00564850    16
GPS BIIR-5  (PRN 28)    
1 26407C 00040A   20271.71090278  .00000000  00000-0  00000-0 0  2712
2 26407  55.9195 298.1338 0186788 280.1468  67.0339  2.00564766    11
GPS BIIR-8  (PRN 16)    
1 27663C 03005A   20271.71090278  .00000000  00000-0  00000-0 0  2711
2 27663  55.9743 297.9240 0114236  34.9432  74.5792  2.00575053    16
GPS BIIR-9  (PRN 21)    
1 27704C 03010A   20271.71090278 -.00000000  00000-0  00000-0 0  2714
2 27704  54.6980  48.8274 0240033 286.1296  72.0468  2.00405998    18
GPS BIIR-10 (PRN 22)    
1 28129C 03058A   20271.71090278 -.00000000  00000-0  00000-0 0  2718
2 28129  53.4022 107.6094 0069304 296.7098 327.9078  2.00557621    15
GPS BIIR-11 (PRN 19)    
1 28190C 04009A   20271.71090278  .00000000  00000-0  00000-0 0  2712
2 28190  56.2565 358.7445 0090019  99.0607 165.2698  2.00560933    13
GPS BIIR-13 (PRN 02)    
1 28474C 04045A   20271.71090278 -.00000000  00000-0  00000-0 0  2718
2 28474  55.0395  48.7375 0200929 268.1047 271.8748  2.00550783    16
GPS BIIRM-1 (PRN 17)    
1 28874C 05038A   20271.71090278  .00000000  00000-0  00000-0 0  2714
2 28874  56.3534 356.1405 0137196 266.4071  16.6735  2.00554109    19
GPS BIIRM-2 (PRN 31)    
1 29486C 06042A   20271.71090278  .00000000  00000-0  00000-0 0  2710
2 29486  54.8364 234.2911 0096835   8.1790 201.4709  2.00564667    19
GPS BIIRM-3 (PRN 12)    
1 29601C 06052A   20271.71090278  .00000000  00000-0  00000-0 0  2710
2 29601  55.9638 296.8445 0076773  66.1880 180.5685  2.00569516    11
GPS BIIRM-4 (PRN 15)    
1 32260C 07047A   20271.71090278 -.00000000  00000-0  00000-0 0  2711
2 32260  53.1949 166.5553 0126385  52.3404 333.2221  2.00554103    17
GPS BIIRM-5 (PRN 29)    
1 32384C 07062A   20271.71090278  .00000000  00000-0  00000-0 0  2714
2 32384  56.4522 356.8265 0014129 133.9822  21.6624  2.00556165    18
GPS BIIRM-6 (PRN 07)    
1 32711C 08012A   20271.71090278  .00000000  00000-0  00000-0 0  2714
2 32711  54.5845 233.3709 0143911 225.1743 218.7091  2.00567163    16
GPS BIIRM-8 (PRN 05)    
1 35752C 09043A   20271.71090278 -.00000000  00000-0  00000-0 0  2718
2 35752  54.6468 110.8912 0059276  48.7619  66.2576  2.00556043    11
GPS BIIF-1  (PRN 25)    
1 36585C 10022A   20271.71090278  .00000000  00000-0  00000-0 0  2711
2 36585  55.2380 292.8068 0089428  52.4569 166.1732  2.00556976    16
GPS BIIF-2  (PRN 01)    
1 37753C 11036A   20271.71090278 -.00000000  00000-0  00000-0 0  2716
2 37753  56.2482  53.2526 0099292  46.5861 259.7610  2.00561121    17
GPS BIIF-3  (PRN 24)    
1 38833C 12053A   20271.71090278  .00000000  00000-0  00000-0 0  2715
2 38833  53.6286 229.1192 0100264  37.9171 277.8282  2.00567565    17
GPS BIIF-4  (PRN 27)    
1 39166C 13023A   20271.71090278  .00000000  00000-0  00000-0 0  2713
2 39166  56.0104 352.7498 0082469  31.6602  24.7531  2.00564436    11
GPS BIIF-5  (PRN 30)    
1 39533C 14008A   20271.71090278  .00000000  00000-0  00000-0 0  2715
2 39533  53.7412 234.5633 0048545 201.6799 215.2135  2.00573172    10
GPS BIIF-6  (PRN 06)    
1 39741C 14026A   20271.71090278 -.00000000  00000-0  00000-0 0  2717
2 39741  56.2212  52.7800 0020170 291.8266 283.5883  2.00570150    18
GPS BIIF-7  (PRN 09)    
1 40105C 14045A   20271.71090278 -.00000000  00000-0  00000-0 0  2714
2 40105  54.5949 171.8671 0015870 102.3361  46.0351  2.00566746    12
GPS BIIF-8  (PRN 03)    
1 40294C 14068A   20271.71090278 -.00000000  00000-0  00000-0 0  2718
2 40294  55.3961 112.8154 0030596  47.4938 195.0396  2.00556043    19
GPS BIIF-9  (PRN 26)    
1 40534C 15013A   20271.71090278  .00000000  00000-0  00000-0 0  2715
2 40534  54.1511 290.6532 0049695   8.5404 136.5646  2.00562211    17
GPS BIIF-10 (PRN 08)    
1 40730C 15033A   20271.71090278  .00000000  00000-0  00000-0 0  2715
2 40730  55.5247 351.8743 0055211 353.7771  33.6828  2.00557982    11
GPS BIIF-11 (PRN 10)    
1 41019C 15062A   20271.71090278 -.00000000  00000-0  00000-0 0  2719
2 41019  55.3916 112.6442 0060523 209.2596 142.7086  2.00564531    10
GPS BIIF-12 (PRN 32)    
1 41328C 16007A   20271.71090278 -.00000000  00000-0  00000-0 0  2712
2 41328  54.8282 172.3802 0043270 222.2611  59.9129  2.00573787    19
GPS BIII-1  (PRN 04)    
1 43873C 18109A   20271.71090278 -.00000000  00000-0  00000-0 0  2714
2 43873  55.0095 174.6683 0009179 207.9466 331.1800  2.00569164    16
GPS BIII-2  (PRN 18)    
1 44506C 19056A   20271.71090278 -.00000000  00000-0  00000-0 0  2710
2 44506  55.3102  54.1337 0010093 171.2359 269.6003  2.00559517    12
GPS BIII-3  (PRN 23)    
1 45854C 20041A   20271.71090278 -.00000000  00000-0  00000-0 0  2713
2 45854  55.1012 111.3729 0008255 115.7432 262.2287  2.00570219    15
